ONEWEB-0504             
1 54122U 22138K   24133.60611350  .00000156  00000+0  35743-3 0  9991
2 54122  87.9122  97.3295 0001695  91.9613 268.1714 13.19726449 75850
ONEWEB-0505             
1 54123U 22138L   24133.60295625  .00000147  00000+0  33526-3 0  9992
2 54123  87.9122  97.3255 0001838 108.0950 252.0383 13.19726136 75835
ONEWEB-0506             
1 54124U 22138M   24133.42605023 -.00000163  00000+0 -44053-3 0  9997
2 54124  87.9125  97.3573 0002134  94.2328 265.9048 13.19725193 75807
ONEWEB-0507             
1 54125U 22138N   24133.59821765  .00000123  00000+0  27411-3 0  9992
2 54125  87.9130  97.3416 0002105  95.1568 264.9805 13.19726249 75874
ONEWEB-0508             
1 54126U 22138P   24133.59505731  .00000134  00000+0  30186-3 0  9990
2 54126  87.9128  97.3367 0002104  98.7334 261.4037 13.19724748 75855
ONEWEB-0509             
1 54127U 22138Q   24133.41815263  .00000180  00000+0  41620-3 0  9992
2 54127  87.9120  97.3613 0001977  90.6209 269.5151 13.19726037 75805
ONEWEB-0510             
1 54128U 22138R   24133.38186052  .00000160  00000+0  36148-3 0  9993
2 54128  87.9213  66.8014 0002483  81.0167 279.1247 13.20772666 78194
ONEWEB-0511             
1 54129U 22138S   24133.41499453  .00000124  00000+0  27763-3 0  9993
2 54129  87.9119  97.3645 0001600  83.4471 276.6844 13.19725995 75837
